STARLINK-31124          
1 58674U 23211H   26068.46815394  .00007182  00000+0  27033-3 0  9996
2 58674  43.0037  86.2802 0002359 269.4061  90.6521 15.27571582122430
GESAT GEN1              
1 62612U 25009D   26068.72662138  .00010041  00000+0  38326-3 0  9990
2 62612  97.4058 151.4598 0000888  98.3547 261.7793 15.26847505 63732
